agent_id,address,zipcode,state,city,phone
1,"6232 Xonylkb St., Apt. 18",95179,PA,Njohsu,9258749415
2,"5518 Zzwjxpelj St., Apt. 1",46245,PA,Atrgdz,8405525929
3,"6042 Trqhjzuxy St., Apt. 7",88675,GA,Hadogj,7368821827
4,"5014 Qseowvi St., Apt. 2",15722,NY,Mtdrb,9385035337
5,"8684 Kpju St., Apt. 13",44687,MI,Pghtzr,9901764041
6,"9869 Yuxrh St., Apt. 20",96232,CA,Snnhcexqupr,9761111417
7,"3010 Bfuiymhkbj St., Apt. 18",47970,TX,Bznfv,7373457500
8,"8037 Vzkuesnxaz St., Apt. 12",69877,NC,Dvzcnexfft,8617583660
9,"8507 Swdwiw St., Apt. 18",56513,TX,Tigbwnwu,9156429407
10,"407 Glpm St., Apt. 16",78153,NC,Xuuqsnderpw,9569424981
11,"7995 Ktpabm St., Apt. 4",62578,FL,Qrddvojn,9482325015
12,"4487 Owzhoicxta St., Apt. 19",10525,OH,Xngslyjf,7716255394
13,"6840 Qkjqfyfz St., Apt. 11",76057,IL,Ewqrs,9688892638
14,"7465 Zjmr St., Apt. 10",50892,OH,Dbmoxo,8017306096
15,"3490 Drymdyi St., Apt. 3",30783,CA,Vpsdh,8333759074
16,"8643 Kcwsmurnx St., Apt. 3",20803,NY,Rgygfea,7726947076
17,"3385 Uhehqafsh St., Apt. 8",35989,MI,Ctdkte,9362049000
18,"7275 Gzyhdjsjwt St., Apt. 19",83578,MI,Xklmym,9646712262
19,"2569 Jxabjcskb St., Apt. 3",30857,MI,Hnkrdwhn,7499989175
20,"376 Ccti St., Apt. 1",39178,IL,Vxyglthi,8708201562
21,"3890 Vmtohtpp St., Apt. 4",16220,PA,Sfwlpix,7472742818
22,"2411 Dwanzmf St., Apt. 5",21663,TX,Nwskqa,7829507228
23,"4310 Lmis St., Apt. 6",48825,GA,Afrhfxwvwc,7250391965
24,"4159 Cmxtfdnih St., Apt. 20",77783,OH,Eqxebxwvg,8566905250
25,"8184 Elnkoddszz St., Apt. 8",97689,GA,Eanvwqvl,9530712026
26,"4936 Enlewuz St., Apt. 19",88979,NC,Teprfso,9094991909
27,"7249 Uvcigtq St., Apt. 5",35092,NY,Jsdfixt,8471518605
28,"1931 Zqgis St., Apt. 10",38348,TX,Bfggej,8216016044
29,"771 Ovqqn St., Apt. 3",74202,MI,Dsfjkhfcq,7405422138
30,"8950 Efcpnkayc St., Apt. 17",68223,CA,Dpjcjaczrxj,8242293048
31,"9081 Fynnwhdijl St., Apt. 3",59448,OH,Oezjvza,8505663942
32,"8765 Obnqysscyl St., Apt. 3",79726,MI,Cixyhsxav,8165940432
33,"1656 Foes St., Apt. 10",55423,OH,Ocxwvxoqpb,8805007338
34,"8913 Oueuzvmae St., Apt. 14",82098,PA,Ycrsg,7064856913
35,"9699 Gwdf St., Apt. 8",59841,CA,Jrisu,9313881600
36,"8101 Clgorrdu St., Apt. 17",15231,FL,Iidbcuz,9763654752
37,"6607 Ynpxwlhod St., Apt. 15",15047,MI,Tjcosjwg,7334852716
38,"6454 Ztdbarler St., Apt. 16",19940,OH,Pweuxbvdlgp,8120128698
39,"9040 Xbuoslbs St., Apt. 18",10740,FL,Xbywv,7487512120
40,"5694 Pijpra St., Apt. 20",38968,PA,Ljuxekqvaf,7066170292
41,"6149 Leqxsmtf St., Apt. 16",54182,PA,Cphik,7671664084
42,"1715 Kepo St., Apt. 16",69528,IL,Dekwbc,9533064198
43,"7295 Utzojfgei St., Apt. 3",26649,OH,Djigd,7870278372
44,"7978 Refbstlei St., Apt. 7",57113,OH,Ripscwbbun,8867405027
45,"1331 Uqrpbxyv St., Apt. 20",49894,OH,Heazyejps,7405399521
46,"3304 Asugyrckf St., Apt. 2",70019,CA,Orkuezfwxo,9578262543
47,"4610 Cuyle St., Apt. 10",65584,CA,Scsuclkalu,8269154297
48,"4548 Xdjjvya St., Apt. 19",99557,IL,Tloisczhf,7930958980
49,"5914 Hgfnxep St., Apt. 12",51414,OH,Fqycloxuhx,9833340112
50,"2488 Ifkivmes St., Apt. 20",62461,PA,Zxkcu,8975341867
51,"6846 Bmqc St., Apt. 19",28491,NC,Pbxhbg,7298572887
52,"1174 Hfxhaj St., Apt. 6",73227,GA,Ayudyyjdmuc,8733612775
53,"1237 Fuard St., Apt. 18",88911,FL,Rdsjq,9343648230
54,"1682 Qbrbvc St., Apt. 15",99883,GA,Emeagsyzhe,7061399573
55,"5336 Cuagvg St., Apt. 17",58209,PA,Ynwcwd,9783078713
56,"2895 Tdthporcfj St., Apt. 10",20198,NC,Hztncezdl,9927858224
57,"735 Nddkvrwmjq St., Apt. 20",57982,TX,Vsveg,7969507323
58,"9390 Zjzcegko St., Apt. 19",25221,IL,Vhylikibkh,7258713562
59,"7431 Ophv St., Apt. 17",25219,IL,Lmpjgedwavy,7582078815
60,"2922 Fikk St., Apt. 4",54654,CA,Qpqiueja,9685570122
61,"8672 Xfsdb St., Apt. 14",41981,CA,Ygcycnjrmq,9582487875
62,"1675 Ejhoofvb St., Apt. 8",20839,PA,Mbqfswqpivw,9816353839
63,"5406 Jkcccjs St., Apt. 16",39391,TX,Utcsmu,7832353059
64,"6083 Vtstoy St., Apt. 6",81367,GA,Aqctaxctk,7561791436
65,"3878 Vdzte St., Apt. 11",62954,OH,Zirvn,9491582474
66,"6814 Bmrnp St., Apt. 1",14049,GA,Crshda,9731362368
67,"4530 Xwkmf St., Apt. 1",29397,PA,Qroissaj,7317532108
68,"975 Ncxhwd St., Apt. 3",83705,MI,Yhgrz,8958629687
69,"3289 Wdwo St., Apt. 3",73384,NC,Pflefqwzxm,9858500644
70,"9406 Cqnqhag St., Apt. 15",42349,IL,Fkgsrshln,9452546486
71,"7533 Mmnwsel St., Apt. 3",87610,MI,Nncmw,8473713746
72,"6613 Uohnxtcn St., Apt. 10",29565,PA,Avfbguga,7296886220
73,"7415 Obqdhtygy St., Apt. 10",94784,MI,Snljml,7958500409
74,"2907 Yheh St., Apt. 17",87037,GA,Abthydbuiue,9209902427
75,"8280 Onvwjfynh St., Apt. 8",88508,TX,Oktcwj,7891688446
76,"1387 Dbdxoio St., Apt. 8",50764,GA,Xnwpkb,9521708979
77,"1901 Cdxr St., Apt. 8",46022,TX,Ynowptewq,9905311220
78,"6072 Uikdlndd St., Apt. 13",37710,PA,Tnuilofhx,7019510460
79,"8128 Vfunskii St., Apt. 9",68459,PA,Ulchas,8798818260
80,"2731 Smiowscci St., Apt. 3",32130,PA,Ldsjerzjl,9358370792
81,"4254 Muftrrsdi St., Apt. 16",78446,GA,Fgouxmen,8060075367
82,"9028 Ifpfrulhey St., Apt. 2",66845,FL,Qyivwlqk,8019614511
83,"6562 Fsjg St., Apt. 11",24136,TX,Ipetak,8212153316
84,"4984 Sycnhfh St., Apt. 8",22189,CA,Xjrci,8052823632
85,"6786 Ehms St., Apt. 18",40720,NY,Xwiwtu,8471527603
86,"7194 Lobytzts St., Apt. 11",87086,NY,Lvvqb,8856742962
87,"7461 Rnreca St., Apt. 18",48366,PA,Vuxfxq,8331107237
88,"5212 Rxjkqgvxkw St., Apt. 11",42592,MI,Thbtrm,9396358739
89,"985 Hiqp St., Apt. 10",29428,FL,Fypxfxh,9272036063
90,"7691 Wgdrp St., Apt. 3",57497,PA,Pqqpgkgoc,8463611382
91,"8103 Racny St., Apt. 20",88432,TX,Lpuacyq,7019100176
92,"8340 Gasmoh St., Apt. 7",26685,GA,Qacsrspechw,9357135960
93,"3029 Ythzdqosc St., Apt. 8",41515,GA,Edfkcisqr,9249595130
94,"4621 Kdfrkgyhb St., Apt. 9",22045,OH,Cdlaylo,9759825814
95,"6548 Okpujv St., Apt. 9",20346,NY,Wtkizblxxk,9602794214
96,"1747 Skhcg St., Apt. 13",24190,MI,Jplsvo,9554393397
97,"8009 Ulaocjg St., Apt. 1",65963,NY,Fctgenunhgl,8484288741
98,"3913 Ctkelnfdd St., Apt. 16",16616,MI,Eyqyuijzlic,9123656144
99,"958 Evwhs St., Apt. 19",99212,CA,Nwfsxt,8078815512
100,"8097 Bnniqbjzvj St., Apt. 20",82753,TX,Mwvdtvxlydt,9890330913
101,"5653 Fuzidxkji St., Apt. 6",98552,PA,Brlgi,7711749886
102,"8462 Tnltxjbd St., Apt. 10",15849,OH,Jdiczwrxect,9309387339
103,"738 Mmuyzdfn St., Apt. 3",58370,IL,Dcszodw,7866370052
104,"2029 Fbeshnz St., Apt. 5",48253,NY,Cnlfjxnqd,7688768488
105,"4514 Vhdcumez St., Apt. 15",44556,TX,Kbhqqldg,8924578534
106,"2878 Liumc St., Apt. 16",66120,MI,Gvusloj,9246286076
107,"9102 Oltviwn St., Apt. 14",82999,GA,Oafwkjqqyn,9743961685
108,"6848 Tidcaogxre St., Apt. 4",33720,NC,Wnflgaqin,7925000861
109,"5584 Zhlx St., Apt. 11",83345,TX,Jwvgauyuenn,8813097282
110,"3659 Zejc St., Apt. 15",45412,PA,Wsscxood,8870478916
111,"5514 Sujfaiiuo St., Apt. 14",58133,OH,Hkbsmqunkg,9627027716
112,"4658 Gbzp St., Apt. 19",92575,NY,Pwnxoyvxtlr,7708786361
113,"135 Vvjvokj St., Apt. 6",98883,FL,Ipvnz,9668712273
114,"2230 Zpiiydjv St., Apt. 15",84402,CA,Plbievbrz,8028566770
115,"7972 Esrhjk St., Apt. 8",98640,IL,Ongrx,9405407013
116,"1561 Mqlltvjjte St., Apt. 18",65022,GA,Ivdyi,7962102740
117,"2126 Jumnkyv St., Apt. 2",36604,FL,Nsfonzkya,8049530944
118,"6238 Llotxdkapi St., Apt. 18",26939,PA,Ebacs,9346885132
119,"6526 Glqgrw St., Apt. 20",40469,MI,Fzuzwjlj,8448384117
120,"5190 Cjgctjnp St., Apt. 10",92501,TX,Tvvozvrcgb,9615191393
121,"7539 Vldtqq St., Apt. 3",44277,FL,Ukeypac,9957247880
122,"7292 Onycmnz St., Apt. 15",66545,NC,Uosfeyo,8722455804
123,"7948 Bngqxedcn St., Apt. 18",87978,NY,Enknbaqh,7936184854
124,"609 Witfwghd St., Apt. 12",50265,NY,Htmfbsvdsgc,7433333592
125,"8387 Sdav St., Apt. 1",64722,GA,Peismnw,8370050975
126,"7850 Tbjwhzhxvl St., Apt. 5",33515,CA,Ltqmyvbb,7535022037
127,"316 Dficu St., Apt. 18",68687,OH,Mfppixd,9220626813
128,"6924 Enwr St., Apt. 8",88995,OH,Pamfovy,7061082621
129,"8463 Vrzczz St., Apt. 10",21778,OH,Lwbaiva,7113707080
130,"866 Ooxa St., Apt. 20",16412,OH,Vbtmwxpdw,9796632435
131,"7426 Urwjas St., Apt. 14",28530,CA,Txdlao,9901792905
132,"4727 Ubgtc St., Apt. 1",31097,TX,Wqmndmfcyrs,9743079600
133,"7680 Dbspcacb St., Apt. 1",72696,FL,Wqabvfop,9351386280
134,"9212 Hdmycs St., Apt. 11",20818,IL,Bwmllva,7027425671
135,"7682 Ogynybeunx St., Apt. 1",96967,IL,Xzdjf,7932561629
136,"3124 Gvnb St., Apt. 5",86830,MI,Cxtigc,7776797898
137,"2013 Cdpthtg St., Apt. 14",97450,IL,Lyiyuxtbdik,7349843483
138,"893 Mzapqbh St., Apt. 2",76765,NY,Chifvn,7695224481
139,"9907 Jfwhevu St., Apt. 17",17852,FL,Bqdtfzyhjy,9968210359
140,"3280 Feacodv St., Apt. 2",13931,TX,Hlvobkxnxq,8912919808
141,"5613 Uzlkmrmv St., Apt. 6",43895,FL,Lbclqqvrvhw,9075523748
142,"1260 Rlzsskbsm St., Apt. 7",28443,MI,Huyxx,7514005571
143,"9961 Xjzuquc St., Apt. 10",22688,NC,Hwcvipjorbv,9475341971
144,"9222 Cbuz St., Apt. 10",86214,CA,Qxzqguvuig,8543644953
145,"2094 Fhhxyczr St., Apt. 18",33775,FL,Zktckh,8760374760
146,"1360 Mnsurojh St., Apt. 7",56706,NC,Kawbgdxox,9278147287
147,"2272 Bxwiwt St., Apt. 3",77624,NY,Ilorrwxk,7723465227
148,"1383 Iyqddfp St., Apt. 17",86254,CA,Cypobuf,8114464481
149,"5717 Mfghwjnhg St., Apt. 6",82968,PA,Qmhnr,7241758623
150,"1323 Yjabvbd St., Apt. 13",86763,PA,Dltceqgx,9085208564
151,"6938 Diznqgp St., Apt. 20",10169,TX,Xgbtr,7391527456
152,"9356 Lpiu St., Apt. 19",56675,MI,Kojstcs,8334099008
153,"8103 Bksjsorbsp St., Apt. 8",91386,PA,Ooapmkpbeb,9835259207
154,"7752 Xbik St., Apt. 12",77375,GA,Vfokrjrv,7108509023
155,"9451 Czxvoie St., Apt. 17",54053,GA,Wbphbrydvap,8443641815
156,"5391 Cbffz St., Apt. 5",85491,MI,Tkhwzhtxgh,9133120433
157,"8138 Ddypg St., Apt. 6",92265,FL,Nmauhhe,9572144634
158,"1597 Kwlh St., Apt. 15",27486,MI,Gzluagq,8221273959
159,"7521 Hgrkilc St., Apt. 5",96579,NC,Kbmlexoxpi,7529182706
160,"2988 Ijxjjcletq St., Apt. 12",76483,OH,Nxznhvlk,8780834365
161,"345 Veonc St., Apt. 11",57865,PA,Uusytkqtznu,8957686394
162,"5937 Ssfjb St., Apt. 9",61358,OH,Rqffsetcgt,7241554969
163,"8360 Zbsww St., Apt. 8",48522,TX,Rutbffj,8936718095
164,"6672 Acnfistyrl St., Apt. 4",48846,OH,Idnfcpevzx,7915475125
165,"8998 Spolhqylmn St., Apt. 15",98494,PA,Uocqc,7074105093
166,"1416 Gjnmhczbdi St., Apt. 12",27770,NY,Kjzoos,7763665834
167,"9691 Tdupuokigb St., Apt. 8",51974,NC,Rjtdydchbgi,9508123295
168,"8412 Sgwf St., Apt. 5",37866,TX,Llunfoxxu,8979938041
169,"3146 Qtzs St., Apt. 13",88351,GA,Gjhwcqiv,9322401645
170,"1925 Jwqqsut St., Apt. 8",75109,TX,Edzgpb,7539453773
171,"9831 Lfwncfpqe St., Apt. 19",75207,TX,Vhhuxialbye,8967880271
172,"3924 Dmynqvyrbz St., Apt. 17",91972,NC,Yatlc,9740729539
173,"8109 Huzudnl St., Apt. 19",75079,OH,Cxfpzg,9689384683
174,"2540 Hklsuz St., Apt. 13",96583,FL,Zelwmgftbme,8505613399
175,"2720 Slzyk St., Apt. 5",32153,GA,Dgkwkslxme,8567207304
176,"8397 Cinfqbvnwm St., Apt. 7",83692,TX,Yabdltpoj,8979522959
177,"7072 Cmssufn St., Apt. 17",98750,TX,Bvyhlixe,8536499361
178,"9957 Thjzy St., Apt. 3",86951,IL,Mrxgsbyu,7248640490
179,"7971 Wuvju St., Apt. 3",91585,NC,Kmqoxky,9470116238
180,"6066 Vzkt St., Apt. 1",79886,GA,Ojibmd,8791091078
181,"660 Wnxbl St., Apt. 13",19946,TX,Qexxwp,9236842030
182,"9536 Pihh St., Apt. 11",32043,CA,Bmhbrigfyhx,9625525003
183,"1093 Jpsz St., Apt. 2",24423,FL,Argyjbi,8498195121
184,"6610 Dqwnettb St., Apt. 16",86375,NY,Fmzzjbiqjnz,9076233938
185,"7935 Suwct St., Apt. 14",29848,CA,Yduzga,7376945821
186,"6608 Ydcyl St., Apt. 8",12322,MI,Vqdsve,8265256528
187,"3980 Iwrpgdq St., Apt. 1",45616,NY,Tsgvfqa,8747108024
188,"8378 Wtow St., Apt. 7",16624,TX,Ppqhfysuywk,9531221789
189,"9503 Ytwzw St., Apt. 14",99476,OH,Xtfug,9999350431
190,"2621 Ftvdxq St., Apt. 2",84863,NY,Elgvvguzp,7623365676
191,"5525 Zvzdaeookq St., Apt. 17",83209,MI,Fmhbkym,7545519539
192,"2186 Fhrkh St., Apt. 12",75665,OH,Koqxhshivv,7850425511
193,"8417 Vottn St., Apt. 20",60708,NC,Seducmks,9019793583
194,"3229 Jcoxtr St., Apt. 1",36728,IL,Alyylqkg,8973453824
195,"7179 Shmbukex St., Apt. 12",83913,CA,Gtqvs,8755875690
196,"8937 Zhftjwbm St., Apt. 14",91834,NY,Jydjqark,9163100569
197,"6204 Goubiyrxdy St., Apt. 10",67954,PA,Pmvozuarvph,8810870222
198,"7939 Vhyeqsatpq St., Apt. 5",64868,NC,Eucojrx,7672647275
199,"3852 Qitjwy St., Apt. 3",84074,MI,Jsitedhhf,9824693166
200,"601 Exqycpnu St., Apt. 6",71868,GA,Shlqspkx,7806027698
201,"3348 Alpa St., Apt. 1",13404,MI,Nffuetvlp,8992838758
202,"4418 Jmjpdebmm St., Apt. 2",49885,MI,Bhzlvcdj,7415858382
203,"2993 Rxjovh St., Apt. 18",84407,MI,Ccdobsflx,7463254409
204,"8481 Izvbynww St., Apt. 4",78103,NC,Emuvg,9386928143
205,"7559 Abnqg St., Apt. 15",82035,TX,Clbbex,7913473001
206,"6773 Dyqdw St., Apt. 13",41590,CA,Btikzdo,8411707341
207,"658 Wacbkf St., Apt. 10",46191,FL,Dpilk,9818788569
208,"1857 Zsymtkcyfs St., Apt. 18",80421,FL,Tmxbfq,7501479239
209,"819 Wdof St., Apt. 17",26428,CA,Sewauhtf,9697960001
210,"3416 Koiwylm St., Apt. 13",15074,FL,Umodmkirr,7866999142
211,"6503 Hcmpzsngaj St., Apt. 1",35483,PA,Gjxezukes,8633234153
212,"9381 Hduoofov St., Apt. 19",49075,MI,Lsvbvoaccif,9195814220
213,"6704 Edvnlr St., Apt. 12",35553,GA,Whshvpflsi,7596855139
214,"3304 Gctfr St., Apt. 2",32924,OH,Jrloxmgfab,9943272594
215,"4943 Vlhgr St., Apt. 17",21314,NC,Jrdexk,8840973788
216,"2757 Bxblkcihw St., Apt. 20",92961,IL,Eeeiwrmmvnz,7379261946
217,"5066 Eqhfuqfti St., Apt. 3",88395,IL,Srybev,8856808874
218,"625 Ugakdjdyo St., Apt. 19",29384,NY,Yrgxf,9105550355
219,"2134 Blqzdqvdf St., Apt. 13",26188,CA,Hokah,7747383755
220,"688 Arzzd St., Apt. 20",51127,TX,Oeosznedmsp,7743079587
221,"9913 Bypj St., Apt. 10",95927,TX,Obxydpfe,8532491096
222,"5025 Gjytyyfij St., Apt. 17",14583,PA,Iuonwbccudq,8925434402
223,"650 Mzdxnrnbig St., Apt. 20",36173,OH,Zctjwnu,8360918790
224,"2647 Jvdmbhz St., Apt. 11",75843,GA,Qkhqutso,9870586478
225,"9460 Arieujhrz St., Apt. 3",70999,NY,Tsebratuhha,7585118840
226,"158 Mknx St., Apt. 3",59578,NY,Yukkiynyhk,7976452348
227,"4974 Dwbtktqroe St., Apt. 3",20195,OH,Kmbrfj,8471052624
228,"2748 Dsqv St., Apt. 17",97228,GA,Tqmzsifixkh,7571844236
229,"6363 Bexjpn St., Apt. 15",90169,NC,Cwrvwwe,7554819330
230,"9172 Siywmonpmw St., Apt. 13",11793,GA,Pzdtt,7550070927
231,"2927 Mrxxbhzmuz St., Apt. 2",53987,IL,Iorzsaomq,7935146473
232,"189 Mtgv St., Apt. 16",42897,TX,Aoxeulehbh,9564213603
233,"3047 Ttjtwgmsgp St., Apt. 18",56178,PA,Pcmppasjxp,9954866518
234,"1609 Osvfmfly St., Apt. 19",35319,GA,Yrsgbvz,7858269541
235,"9934 Qzklz St., Apt. 8",33556,CA,Ttykvvh,8297700144
236,"8547 Imrrpxm St., Apt. 3",16987,MI,Ucsvaxytcsb,7332574522
237,"5064 Atwpmnqhm St., Apt. 19",79510,IL,Vurpt,7851184198
238,"7086 Dtajybq St., Apt. 14",80900,NC,Uxtzijxcpr,9328716123
239,"6147 Dmlbrd St., Apt. 2",81116,CA,Lirkbtzfr,8058701412
240,"7314 Xcsndieqg St., Apt. 20",99693,MI,Ceizbtar,8733454102
241,"706 Hqfrbhg St., Apt. 7",72441,FL,Zozgruneh,8492460999
242,"3953 Cnrnn St., Apt. 18",17939,GA,Rledydhwhw,8945919180
243,"5772 Rnfcnft St., Apt. 1",95503,OH,Giqwqmyhrfo,9586244352
244,"2494 Qiydlww St., Apt. 20",23419,FL,Umeqqokm,9453784075
245,"6987 Ofkv St., Apt. 12",73192,FL,Kvmhayxu,9579059825
246,"6683 Haqp St., Apt. 10",37333,OH,Wyiip,9116579378
247,"5778 Nunawqupg St., Apt. 12",41218,OH,Visfjimlwpo,9751885530
248,"669 Cktiucoodl St., Apt. 1",82404,NY,Fqzxney,9711726364
249,"1289 Dsyawyag St., Apt. 7",82290,NC,Bhteifroyy,9753321313
250,"160 Ohseg St., Apt. 11",89572,CA,Qioxsgco,9505477398
251,"4672 Nekkcsljgx St., Apt. 3",45731,FL,Hpgtqt,8642656109
252,"5252 Xszuklr St., Apt. 13",43784,NC,Blcvw,8498536952
253,"9436 Fusrlwqvm St., Apt. 9",62983,OH,Gelwb,9225100539
254,"1336 Bfeypqa St., Apt. 10",12116,GA,Ctmeifueh,8720181443
255,"8983 Citubfxn St., Apt. 19",13354,FL,Pcyczb,9776835845
256,"8353 Qedn St., Apt. 9",23718,NC,Cenblezzc,9436477159
257,"2658 Apheq St., Apt. 20",93345,CA,Oevtnsfxqxy,9480364364
258,"5308 Rpthuyiij St., Apt. 14",23333,CA,Cmqjxf,9051462888
259,"7323 Zinq St., Apt. 13",78328,CA,Ktuludcvemj,9719810839
260,"2249 Bevh St., Apt. 1",36023,IL,Kjgeip,7779771084
261,"7842 Itpvhezvgp St., Apt. 1",33831,NY,Witmxdb,7568613613
262,"9489 Lcuqhtlqfg St., Apt. 10",93396,PA,Aelcxsjeonb,9398245142
263,"8012 Embdsbo St., Apt. 4",10751,MI,Uvduaqxe,8691817752
264,"9451 Ovrsjhmbu St., Apt. 18",77390,MI,Egkrbwfb,8380050107
265,"6538 Yddiiupmjt St., Apt. 16",64225,GA,Zgjbzkgypga,9506037655
266,"2462 Xehkbr St., Apt. 3",23400,OH,Fxzwcdcjvvo,8279250838
267,"7144 Ddjfur St., Apt. 5",74596,GA,Yfjeijocjs,9082026593
268,"4061 Aggt St., Apt. 6",93100,IL,Cnoljasylwv,8048099768
269,"965 Ypuhftkodk St., Apt. 16",73276,CA,Okapn,9593330313
270,"2008 Hypdmfpnyr St., Apt. 6",58451,PA,Qhlgka,8329886396
271,"9652 Xgcsijmvet St., Apt. 3",48565,NY,Vkyilen,8846135503
272,"2176 Wrgggzxph St., Apt. 5",25335,MI,Eaiybcs,8652617463
273,"7077 Edaaqdtw St., Apt. 15",97341,TX,Pcclkgnaaqx,9084220022
274,"6798 Jwjsjs St., Apt. 9",49407,GA,Byweknufu,7517151125
275,"8893 Srjaseveyr St., Apt. 18",80721,PA,Rvqadzgf,9807680735
276,"3514 Lecgskgl St., Apt. 19",50067,NY,Dtdpfvyhef,8837001957
277,"4711 Boxe St., Apt. 7",42809,GA,Oxuoomo,8885284354
278,"2394 Vkccnj St., Apt. 11",89864,TX,Ifvoqhyrqa,9259381674
279,"4915 Msyaploah St., Apt. 15",72271,FL,Cxsdwghepml,7474688562
280,"9824 Tjkfwv St., Apt. 11",18243,NY,Tutktnw,7060422276
281,"4164 Zadtsqlti St., Apt. 5",37853,MI,Cxisdgyiw,7590417107
282,"1345 Bbaad St., Apt. 6",13030,IL,Wzyrlv,8228627547
283,"328 Xnigj St., Apt. 10",81063,PA,Nvluqbsb,9431450319
284,"6972 Akbhq St., Apt. 20",55810,TX,Ncbalfvdhl,7143432981
285,"8371 Muexe St., Apt. 14",39001,MI,Ogouimcmuei,7570278029
286,"1691 Dhupui St., Apt. 5",31951,CA,Iclpe,8176329043
287,"4725 Rgakrdj St., Apt. 3",10569,PA,Zhehr,7449426294
288,"3952 Quidnbvnpc St., Apt. 1",46116,OH,Bwgaomjug,8654744387
289,"6684 Ujccp St., Apt. 14",34735,TX,Qnzjrgwc,7549335294
290,"4171 Qppnjy St., Apt. 20",74192,IL,Rspjnenqnow,9578600332
291,"8017 Pbcvjxn St., Apt. 4",24656,NC,Uixjjcyw,7972240925
292,"1601 Yshye St., Apt. 13",93568,GA,Luwcgkzdd,9500714912
293,"8313 Ztemuuh St., Apt. 12",61173,NC,Iipzmdgq,8827728636
294,"9629 Tzpgfvm St., Apt. 15",53480,GA,Wemadyp,8999810002
295,"3384 Asot St., Apt. 15",73182,IL,Dpmhdbvnrmg,9725228244
296,"9682 Apzfcwm St., Apt. 5",64519,NY,Sdtqbhzxub,9668809273
297,"3140 Xofcz St., Apt. 4",47652,OH,Lrhptji,9779863402
298,"699 Ybolnalg St., Apt. 14",27647,MI,Dxuzwvxabk,7809548865
299,"1531 Fmsmce St., Apt. 9",32221,PA,Txdocpfuctl,9883241189
300,"9235 Kzkxgxlv St., Apt. 5",13333,FL,Zpavjexhics,8172000781
